[{"OBJECT_NAME":"STARLINK-30251","OBJECT_ID":"2023-115M","EPOCH":"2026-03-08T20:01:59.331936","MEAN_MOTION":15.26742221,"ECCENTRICITY":0.00010066,"INCLINATION":43.0011,"RA_OF_ASC_NODE":6.1686,"ARG_OF_PERICENTER":298.1512,"MEAN_ANOMALY":61.9237,"EPHEMERIS_TYPE":0,"CLASSIFICATION_TYPE":"U","NORAD_CAT_ID":57532,"ELEMENT_SET_NO":999,"REV_AT_EPOCH":14222,"BSTAR":8.0691095e-5,"MEAN_MOTION_DOT":1.905e-5,"MEAN_MOTION_DDOT":0},{"OBJECT_NAME":"FOSSASAT-2E20 (TAT-O)","OBJECT_ID":"2025-009DN","EPOCH":"2026-03-09T17:00:18.734688","MEAN_MOTION":15.2699108,"ECCENTRICITY":0.00021892,"INCLINATION":97.3231,"RA_OF_ASC_NODE":146.2859,"ARG_OF_PERICENTER":347.5575,"MEAN_ANOMALY":12.561,"EPHEMERIS_TYPE":0,"CLASSIFICATION_TYPE":"U","NORAD_CAT_ID":63003,"ELEMENT_SET_NO":999,"REV_AT_EPOCH":12131,"BSTAR":0.00061862572,"MEAN_MOTION_DOT":0.00016337,"MEAN_MOTION_DDOT":0}]
